GLOBALSTAR M024         
1 25883U 99043A   24293.78293354 -.00000083  00000+0 -64869-3 0  9990
2 25883  51.9999 203.0574 0002238  57.1648 336.5284 11.10160171 88160
GLOBALSTAR M054         
1 25885U 99043C   24293.91389522 -.00000091  00000+0 -49669-3 0  9990
2 25885  52.0128  81.5525 0006767 125.6670  46.1008 11.39205254 91660
GLOBALSTAR M053         
1 25886U 99043D   24293.70017487 -.00000045  00000+0  68908-3 0  9991
2 25886  52.0023  15.8196 0003448  42.2165 117.6852 11.27659415 92318
GLOBALSTAR M058         
1 25907U 99049A   24293.71929991  .00000018  00000+0  13828-2 0  9993
2 25907  51.9970  31.2798 0002378 157.5352 202.5587 11.93186403512838
GLOBALSTAR M050         
1 25908U 99049B   24293.64132947 -.00000021  00000+0  76117-3 0  9999
2 25908  52.0005  57.1333 0008334 270.8677 103.6888 12.07441340119130
GLOBALSTAR M033         
1 25909U 99049C   24293.45406772  .00000016  00000+0  10405-2 0  9999
2 25909  51.9915 306.1152 0012945 128.5918 231.6091 12.20287778506355
GLOBALSTAR M055         
1 25910U 99049D   24293.60612816 -.00000045  00000+0  41974-3 0  9995
2 25910  52.0035 328.1429 0007010 354.5978   5.4797 12.29411687138692
